start=new Date('2021-09-28T00:00:00.000Z').valueOf();
sats=[{"GP_ID":"185669750","SITE":"AFETR","TLE_LINE1":"1 48557U 21041E   21270.60224746  .00005517  00000-0  38906-3 0  9997","RA_OF_ASC_NODE":"222.4340","OBJECT_TYPE":"PAYLOAD","CLASSIFICATION_TYPE":"U","PERIAPSIS":"545.706","APOAPSIS":"548.749","INCLINATION":"53.0570","RCS_SIZE":"LARGE","PERIOD":"95.592","COUNTRY_CODE":"US","ELEMENT_SET_NO":"999","OBJECT_ID":"2021-041E","FILE":"3131463","CENTER_NAME":"EARTH","MEAN_ANOMALY":"309.3299","REV_AT_EPOCH":"2041","MEAN_MOTION_DDOT":"0.0000000000000","MEAN_MOTION_DOT":"0.00005517","DECAY_DATE":null,"TIME_SYSTEM":"UTC","ECCENTRICITY":"0.00021970","EPHEMERIS_TYPE":"0","OBJECT_NAME":"STARLINK-2155","REF_FRAME":"TEME","MEAN_MOTION":"15.06395537","NORAD_CAT_ID":"48557","LAUNCH_DATE":"2021-05-15","ARG_OF_PERICENTER":"50.7885","EPOCH":"2021-09-27T14:27:14.180544","SEMIMAJOR_AXIS":"6925.362","TLE_LINE2":"2 48557  53.0570 222.4340 0002197  50.7885 309.3299 15.06395537 20416","MEAN_ELEMENT_THEORY":"SGP4","BSTAR":"0.00038906000000"},{"TLE_LINE2":"2 48558  53.0561 222.4463 0001187  60.4368 299.6739 15.06407253 19557","BSTAR":"0.00016919000000","MEAN_ELEMENT_THEORY":"SGP4","SEMIMAJOR_AXIS":"6925.326","EPOCH":"2021-09-27T14:21:53.287488","ARG_OF_PERICENTER":"60.4368","LAUNCH_DATE":"2021-05-15","NORAD_CAT_ID":"48558","MEAN_MOTION":"15.06407253","REF_FRAME":"TEME","OBJECT_NAME":"STARLINK-2166","EPHEMERIS_TYPE":"0","ECCENTRICITY":"0.00011870","DECAY_DATE":null,"TIME_SYSTEM":"UTC","MEAN_MOTION_DOT":"0.00002240","MEAN_MOTION_DDOT":"0.0000000000000","REV_AT_EPOCH":"1955","MEAN_ANOMALY":"299.6739","CENTER_NAME":"EARTH","FILE":"3130990","OBJECT_ID":"2021-041F","ELEMENT_SET_NO":"999","PERIOD":"95.592","COUNTRY_CODE":"US","RCS_SIZE":"LARGE","INCLINATION":"53.0561","APOAPSIS":"548.013","CLASSIFICATION_TYPE":"U","PERIAPSIS":"546.369","RA_OF_ASC_NODE":"222.4463","TLE_LINE1":"1 48558U 21041F   21270.59853342  .00002240  00000-0  16919-3 0  9996","OBJECT_TYPE":"PAYLOAD","SITE":"AFETR","GP_ID":"185636411"},{"GP_ID":"185669103","APOAPSIS":"548.138","CLASSIFICATION_TYPE":"U","PERIAPSIS":"546.352","TLE_LINE1":"1 48559U 21041G   21270.83350010 -.00000873  00000-0 -39729-4 0  9995","OBJECT_TYPE":"PAYLOAD","RA_OF_ASC_NODE":"221.4128","SITE":"AFETR","ELEMENT_SET_NO":"999","OBJECT_ID":"2021-041G","PERIOD":"95.593","COUNTRY_CODE":"US","RCS_SIZE":"LARGE","INCLINATION":"53.0480","MEAN_MOTION_DDOT":"0.0000000000000","REV_AT_EPOCH":"2044","MEAN_ANOMALY":"307.2826","CENTER_NAME":"EARTH","FILE":"3131463","OBJECT_NAME":"STARLINK-2167","EPHEMERIS_TYPE":"0","DECAY_DATE":null,"ECCENTRICITY":"0.00012890","TIME_SYSTEM":"UTC","MEAN_MOTION_DOT":"-0.00000873","NORAD_CAT_ID":"48559","MEAN_MOTION":"15.06389781","REF_FRAME":"TEME","ARG_OF_PERICENTER":"52.8280","LAUNCH_DATE":"2021-05-15","BSTAR":"-0.00003972900000","TLE_LINE2":"2 48559  53.0480 221.4128 0001289  52.8280 307.2826 15.06389781 20444","MEAN_ELEMENT_THEORY":"SGP4","SEMIMAJOR_AXIS":"6925.380","EPOCH":"2021-09-27T20:00:14.408640"},{"MEAN_MOTION":"15.06398673","NORAD_CAT_ID":"48560","REF_FRAME":"TEME","MEAN_MOTION_DOT":"0.00001230","EPHEMERIS_TYPE":"0","DECAY_DATE":null,"ECCENTRICITY":"0.00010930","TIME_SYSTEM":"UTC","OBJECT_NAME":"STARLINK-2173","EPOCH":"2021-09-27T13:39:26.992224","SEMIMAJOR_AXIS":"6925.353","TLE_LINE2":"2 48560  53.0488 222.6009 0001093 109.4790 250.6317 15.06398673 21316","MEAN_ELEMENT_THEORY":"SGP4","BSTAR":"0.00010144000000","LAUNCH_DATE":"2021-05-15","ARG_OF_PERICENTER":"109.4790","SITE":"AFETR","TLE_LINE1":"1 48560U 21041H   21270.56906241  .00001230  00000-0  10144-3 0  9995","RA_OF_ASC_NODE":"222.6009","OBJECT_TYPE":"PAYLOAD","APOAPSIS":"547.975","PERIAPSIS":"546.461","CLASSIFICATION_TYPE":"U","GP_ID":"185636732","FILE":"3130990","CENTER_NAME":"EARTH","REV_AT_EPOCH":"2131","MEAN_ANOMALY":"250.6317","MEAN_MOTION_DDOT":"0.0000000000000","INCLINATION":"53.0488","RCS_SIZE":"LARGE","PERIOD":"95.592","COUNTRY_CODE":"US","ELEMENT_SET_NO":"999","OBJECT_ID":"2021-041H"},{"NORAD_CAT_ID":"48561","MEAN_MOTION":"15.42198825","REF_FRAME":"TEME","MEAN_MOTION_DOT":"-0.00039255","OBJECT_NAME":"STARLINK-2186","EPHEMERIS_TYPE":"0","ECCENTRICITY":"0.00023830","DECAY_DATE":null,"TIME_SYSTEM":"UTC","SEMIMAJOR_AXIS":"6817.758","EPOCH":"2021-09-28T00:00:02.000160","TLE_LINE2":"2 48561  53.0543 198.1587 0002383  27.9512 286.9056 15.42198825  3629","MEAN_ELEMENT_THEORY":"SGP4","BSTAR":"-0.00089587000000","ARG_OF_PERICENTER":"27.9512","LAUNCH_DATE":"2021-05-15","OBJECT_TYPE":"PAYLOAD","TLE_LINE1":"1 48561U 21041J   21271.00002315 -.00039255  00000-0 -89587-3 0  9992","RA_OF_ASC_NODE":"198.1587","SITE":"AFETR","APOAPSIS":"441.248","PERIAPSIS":"437.999","CLASSIFICATION_TYPE":"U","GP_ID":"185669858","CENTER_NAME":"EARTH","FILE":"3131463","MEAN_MOTION_DDOT":"0.0000000000000","MEAN_ANOMALY":"286.9056","REV_AT_EPOCH":"362","RCS_SIZE":"LARGE","INCLINATION":"53.0543","ELEMENT_SET_NO":"999","OBJECT_ID":"2021-041J","PERIOD":"93.373","COUNTRY_CODE":"US"},{"CLASSIFICATION_TYPE":"U","PERIAPSIS":"546.468","APOAPSIS":"547.982","SITE":"AFETR","OBJECT_TYPE":"PAYLOAD","TLE_LINE1":"1 48562U 21041K   21270.57642383  .00000394  00000-0  45311-4 0  9997","RA_OF_ASC_NODE":"222.5328","GP_ID":"185636086","MEAN_ANOMALY":"315.6047","REV_AT_EPOCH":"2041","MEAN_MOTION_DDOT":"0.0000000000000","FILE":"3130990","CENTER_NAME":"EARTH","COUNTRY_CODE":"US","PERIOD":"95.592","ELEMENT_SET_NO":"999","OBJECT_ID":"2021-041K","INCLINATION":"53.0616","RCS_SIZE":"LARGE","REF_FRAME":"TEME","NORAD_CAT_ID":"48562","MEAN_MOTION":"15.06396127","DECAY_DATE":null,"ECCENTRICITY":"0.00010930","TIME_SYSTEM":"UTC","EPHEMERIS_TYPE":"0","OBJECT_NAME":"STARLINK-2187","MEAN_MOTION_DOT":"0.00000394","TLE_LINE2":"2 48562  53.0616 222.5328 0001093  44.5030 315.6047 15.06396127 20414","MEAN_ELEMENT_THEORY":"SGP4","BSTAR":"0.00004531100000","EPOCH":"2021-09-27T13:50:03.018912","SEMIMAJOR_AXIS":"6925.360","LAUNCH_DATE":"2021-05-15","ARG_OF_PERICENTER":"44.5030"},{"COUNTRY_CODE":"US","PERIOD":"95.592","ELEMENT_SET_NO":"999","OBJECT_ID":"2021-041L","INCLINATION":"53.0564","RCS_SIZE":"LARGE","MEAN_ANOMALY":"310.2513","REV_AT_EPOCH":"2045","MEAN_MOTION_DDOT":"0.0000000000000","FILE":"3131463","CENTER_NAME":"EARTH","GP_ID":"185669427","APOAPSIS":"548.233","PERIAPSIS":"546.167","CLASSIFICATION_TYPE":"U","SITE":"AFETR","OBJECT_TYPE":"PAYLOAD","TLE_LINE1":"1 48563U 21041L   21270.86023545  .00001577  00000-0  12476-3 0  9992","RA_OF_ASC_NODE":"221.2739","LAUNCH_DATE":"2021-05-15","ARG_OF_PERICENTER":"49.8607","TLE_LINE2":"2 48563  53.0564 221.2739 0001492  49.8607 310.2513 15.06404359 20450","BSTAR":"0.00012476000000","MEAN_ELEMENT_THEORY":"SGP4","EPOCH":"2021-09-27T20:38:44.342880","SEMIMAJOR_AXIS":"6925.335","EPHEMERIS_TYPE":"0","ECCENTRICITY":"0.00014920","DECAY_DATE":null,"TIME_SYSTEM":"UTC","OBJECT_NAME":"STARLINK-2188","MEAN_MOTION_DOT":"0.00001577","NORAD_CAT_ID":"48563","MEAN_MOTION":"15.06404359","REF_FRAME":"TEME"},{"ARG_OF_PERICENTER":"67.5469","LAUNCH_DATE":"2021-05-15","BSTAR":"0.00008663800000","TLE_LINE2":"2 48564  53.0556 221.3014 0001312  67.5469 292.5658 15.06390380 20453","MEAN_ELEMENT_THEORY":"SGP4","SEMIMAJOR_AXIS":"6925.378","EPOCH":"2021-09-27T20:28:07.796064","OBJECT_NAME":"STARLINK-2190","EPHEMERIS_TYPE":"0","ECCENTRICITY":"0.00013120","DECAY_DATE":null,"TIME_SYSTEM":"UTC","MEAN_MOTION_DOT":"0.00001009","MEAN_MOTION":"15.06390380","NORAD_CAT_ID":"48564","REF_FRAME":"TEME","OBJECT_ID":"2021-041M","ELEMENT_SET_NO":"999","COUNTRY_CODE":"US","PERIOD":"95.593","RCS_SIZE":"LARGE","INCLINATION":"53.0556","MEAN_MOTION_DDOT":"0.0000000000000","REV_AT_EPOCH":"2045","MEAN_ANOMALY":"292.5658","CENTER_NAME":"EARTH","FILE":"3131463","GP_ID":"185669536","APOAPSIS":"548.152","CLASSIFICATION_TYPE":"U","PERIAPSIS":"546.334","OBJECT_TYPE":"PAYLOAD","TLE_LINE1":"1 48564U 21041M   21270.85286801  .00001009  00000-0  86638-4 0  9990","RA_OF_ASC_NODE":"221.3014","SITE":"AFETR"},{"LAUNCH_DATE":"2021-05-15","ARG_OF_PERICENTER":"68.0770","MEAN_ELEMENT_THEORY":"SGP4","TLE_LINE2":"2 48565  53.0578 221.3182 0003020  68.0770 292.0539 15.06411542 20450","BSTAR":"0.00010743000000","EPOCH":"2021-09-27T20:22:47.633088","SEMIMAJOR_AXIS":"6925.313","DECAY_DATE":null,"TIME_SYSTEM":"UTC","ECCENTRICITY":"0.00030200","EPHEMERIS_TYPE":"0","OBJECT_NAME":"STARLINK-2191","MEAN_MOTION_DOT":"0.00001319","REF_FRAME":"TEME","NORAD_CAT_ID":"48565","MEAN_MOTION":"15.06411542","COUNTRY_CODE":"US","PERIOD":"95.591","ELEMENT_SET_NO":"999","OBJECT_ID":"2021-041N","INCLINATION":"53.0578","RCS_SIZE":"LARGE","REV_AT_EPOCH":"2045","MEAN_ANOMALY":"292.0539","MEAN_MOTION_DDOT":"0.0000000000000","FILE":"3131463","CENTER_NAME":"EARTH","GP_ID":"185669751","PERIAPSIS":"545.087","CLASSIFICATION_TYPE":"U","APOAPSIS":"549.270","SITE":"AFETR","OBJECT_TYPE":"PAYLOAD","TLE_LINE1":"1 48565U 21041N   21270.84916242  .00001319  00000-0  10743-3 0  9996","RA_OF_ASC_NODE":"221.3182"},{"RCS_SIZE":"LARGE","INCLINATION":"53.0553","OBJECT_ID":"2021-041P","ELEMENT_SET_NO":"999","COUNTRY_CODE":"US","PERIOD":"95.592","CENTER_NAME":"EARTH","FILE":"3131463","MEAN_MOTION_DDOT":"0.0000000000000","REV_AT_EPOCH":"2027","MEAN_ANOMALY":"292.6668","GP_ID":"185669641","RA_OF_ASC_NODE":"232.4004","TLE_LINE1":"1 48566U 21041P   21270.60773692 -.00000055  00000-0  15233-4 0  9998","OBJECT_TYPE":"PAYLOAD","SITE":"AFETR","PERIAPSIS":"546.280","CLASSIFICATION_TYPE":"U","APOAPSIS":"548.172","ARG_OF_PERICENTER":"67.4465","LAUNCH_DATE":"2021-05-15","SEMIMAJOR_AXIS":"6925.361","EPOCH":"2021-09-27T14:35:08.469888","MEAN_ELEMENT_THEORY":"SGP4","TLE_LINE2":"2 48566  53.0553 232.4004 0001366  67.4465 292.6668 15.06395954 20272","BSTAR":"0.00001523300000","MEAN_MOTION_DOT":"-0.00000055","OBJECT_NAME":"STARLINK-2214","TIME_SYSTEM":"UTC","DECAY_DATE":null,"ECCENTRICITY":"0.00013660","EPHEMERIS_TYPE":"0","REF_FRAME":"TEME","MEAN_MOTION":"15.06395954","NORAD_CAT_ID":"48566"}];
